[{"OBJECT_NAME":"STARLINK-2058","OBJECT_ID":"2021-012AZ","EPOCH":"2026-03-09T22:00:01.999584","MEAN_MOTION":15.81751151,"ECCENTRICITY":0.00080245,"INCLINATION":53.0405,"RA_OF_ASC_NODE":22.819,"ARG_OF_PERICENTER":62.933,"MEAN_ANOMALY":251.0227,"EPHEMERIS_TYPE":0,"CLASSIFICATION_TYPE":"U","NORAD_CAT_ID":47667,"ELEMENT_SET_NO":999,"REV_AT_EPOCH":586,"BSTAR":0.001226838,"MEAN_MOTION_DOT":0.00259649,"MEAN_MOTION_DDOT":0},{"OBJECT_NAME":"STARLINK-36119","OBJECT_ID":"2026-020C","EPOCH":"2026-03-08T06:51:11.471616","MEAN_MOTION":15.76354622,"ECCENTRICITY":0.00031059,"INCLINATION":42.9984,"RA_OF_ASC_NODE":150.7894,"ARG_OF_PERICENTER":287.1667,"MEAN_ANOMALY":72.8862,"EPHEMERIS_TYPE":0,"CLASSIFICATION_TYPE":"U","NORAD_CAT_ID":67619,"ELEMENT_SET_NO":999,"REV_AT_EPOCH":586,"BSTAR":0.0021609281,"MEAN_MOTION_DOT":0.00366892,"MEAN_MOTION_DDOT":0}]
